OBJECT_NAME,OBJECT_ID,EPOCH,MEAN_MOTION,ECCENTRICITY,INCLINATION,RA_OF_ASC_NODE,ARG_OF_PERICENTER,MEAN_ANOMALY,EPHEMERIS_TYPE,CLASSIFICATION_TYPE,NORAD_CAT_ID,ELEMENT_SET_NO,REV_AT_EPOCH,BSTAR,MEAN_MOTION_DOT,MEAN_MOTION_DDOT
STARLINK-31684,2024-071J,2026-07-20T09:33:33.255648,15.27569052,.0001332,43.0025,317.8919,252.3386,107.7320,0,U,59492,999,12841,-.19855845E-4,-.808E-5,0
STARLINK-31678,2024-071K,2026-07-20T16:01:15.602016,15.27592146,.00013805,43.0015,316.4724,265.2782,94.7912,0,U,59493,999,12727,-.64567748E-4,-.2039E-4,0
STARLINK-31744,2024-071L,2026-07-20T14:21:32.667264,15.27585337,.0001616,43.0024,316.8118,268.0157,92.0510,0,U,59494,999,12844,.36798E-4,.751E-5,0
STARLINK-31719,2024-071M,2026-07-20T15:01:35.915232,15.27575643,.00015098,43.0042,309.2398,272.4891,87.5788,0,U,59495,999,12853,.1588618E-4,.175E-5,0
STARLINK-31728,2024-071N,2026-07-20T14:31:59.431872,15.27580330,.0000965,42.9995,309.0789,258.4720,101.6024,0,U,59496,999,12853,.21456E-3,.5647E-4,0
STARLINK-31720,2024-071P,2026-07-20T15:25:39.584064,15.27603079,.00016044,43.0018,309.3657,256.0125,104.0549,0,U,59497,999,12853,-.13282297E-3,-.3918E-4,0
STARLINK-31731,2024-071Q,2026-07-20T07:42:03.479904,15.27570385,.00011915,43.0025,310.3868,284.7683,75.3037,0,U,59498,999,12849,.75920484E-4,.1827E-4,0
STARLINK-31742,2024-071R,2026-07-20T14:11:38.528160,15.27575115,.0001156,43.0017,308.9737,268.6294,91.4426,0,U,59499,999,12853,-.32142E-4,-.1146E-4,0
STARLINK-31512,2024-071S,2026-07-20T21:32:41.483040,15.27575267,.00009675,43.0011,267.3072,273.1446,86.9295,0,U,59500,999,12903,.21178125E-4,.321E-5,0
STARLINK-31458,2024-071T,2026-07-20T14:19:02.447040,15.27524487,.0001287,43.0052,309.0146,292.7371,67.3345,0,U,59501,999,12853,.42696E-3,.11485E-3,0
STARLINK-31357,2024-071U,2026-07-20T07:21:55.225152,15.27578893,.0001487,43.0026,311.1361,254.7233,105.3454,0,U,59502,999,12848,.28376503E-4,.519E-5,0
STARLINK-31508,2024-071V,2026-07-20T07:27:28.428480,15.27577781,.00013502,43.0026,311.1704,266.1062,93.9635,0,U,59503,999,12848,.27331651E-4,.49E-5,0
STARLINK-31535,2024-071W,2026-07-20T14:32:39.836832,15.27574163,.0001545,43.0027,316.8704,285.3156,74.7525,0,U,59504,999,12844,-.2733E-5,-.337E-5,0
STARLINK-31533,2024-071X,2026-07-20T15:29:20.778432,15.27569039,.00011753,43.0018,309.3819,270.8412,89.2305,0,U,59505,999,12853,.10163127E-3,.2535E-4,0
STARLINK-31524,2024-071Y,2026-07-20T14:53:41.213760,15.27578323,.0001985,43.0019,302.0802,261.4091,98.6536,0,U,59506,999,12861,.53803409E-4,.1218E-4,0
STARLINK-31635,2024-073A,2026-07-20T07:36:45.479520,15.27579460,.00015412,43.0023,288.6424,270.1225,89.9450,0,U,59511,999,12646,.20541368E-4,.303E-5,0
STARLINK-31650,2024-073B,2026-07-20T22:35:58.575552,15.27576163,.0001292,43.0000,285.5834,271.7288,88.3416,0,U,59512,999,12655,.6913196E-5,-.72E-6,0
STARLINK-31658,2024-073C,2026-07-20T20:08:00.454560,15.27575116,.0000936,43.0040,245.7934,336.3037,23.7772,0,U,59513,999,12699,-.1377787E-4,-.641E-5,0
STARLINK-31669,2024-073E,2026-07-20T12:34:02.629056,15.27565986,.0001369,43.0021,287.6085,276.1173,83.9522,0,U,59515,999,12649,-.22937583E-4,-.893E-5,0
STARLINK-31671,2024-073F,2026-07-20T22:50:46.459104,15.27579498,.00012408,43.0029,285.6553,271.9237,88.1473,0,U,59516,999,12655,.19738205E-4,.281E-5,0
STARLINK-31674,2024-073G,2026-07-20T22:15:37.314144,15.27577974,.000103,42.9998,285.4766,282.3423,77.7313,0,U,59517,999,12655,-.17335382E-4,-.739E-5,0
STARLINK-31679,2024-073J,2026-07-20T04:49:02.285760,15.27576946,.00012525,42.9991,279.0886,231.8326,128.2413,0,U,59519,999,12656,-.67640307E-4,-.2123E-4,0
STARLINK-31370,2024-073K,2026-07-20T22:47:04.701408,15.27577555,.00010505,43.0018,285.6387,267.8846,92.1885,0,U,59520,999,12655,.162018E-6,-.258E-5,0
STARLINK-31404,2024-073L,2026-07-20T07:20:20.666400,15.27563507,.0001404,43.0000,289.4013,259.6486,100.4207,0,U,59521,999,12645,-.48910777E-4,-.1607E-4,0
STARLINK-31453,2024-073M,2026-07-20T11:06:59.147712,15.27583860,.00020925,42.9992,270.4089,274.9477,85.1136,0,U,59522,999,12668,.21620778E-3,.5693E-4,0
STARLINK-31476,2024-073N,2026-07-20T22:41:31.498944,15.27594343,.00012172,43.0031,285.6099,271.8752,88.1960,0,U,59523,999,12655,.1642501E-4,.19E-5,0
STARLINK-31538,2024-073Q,2026-07-20T22:04:31.082880,15.27577060,.00013036,43.0017,285.4166,273.0160,87.0543,0,U,59525,999,12655,.2785777E-4,.504E-5,0
STARLINK-31564,2024-073R,2026-07-20T12:28:28.864128,15.27576496,.00015485,43.0017,287.5767,268.2110,91.8564,0,U,59526,999,12649,.9582864E-5,.1E-7,0
STARLINK-31452,2024-073S,2026-07-20T07:14:46.001184,15.27575050,.00013692,43.0038,289.3765,266.8156,93.2539,0,U,59527,999,12645,.7034242E-5,-.69E-6,0
STARLINK-31513,2024-073U,2026-07-20T22:53:18.917088,15.27579162,.00014961,43.0034,282.1729,259.4806,100.5877,0,U,59529,999,12659,.23296377E-4,.379E-5,0
