STARLINK-31684          
1 59492U 24071J   26201.39830157 -.00000808  00000+0 -19856-4 0  9990
2 59492  43.0025 317.8919 0001332 252.3386 107.7320 15.27569052128419
STARLINK-31678          
1 59493U 24071K   26201.66754169 -.00002039  00000+0 -64568-4 0  9997
2 59493  43.0015 316.4724 0001380 265.2782  94.7912 15.27592146127279
STARLINK-31744          
1 59494U 24071L   26201.59829476  .00000751  00000+0  36798-4 0  9995
2 59494  43.0024 316.8118 0001616 268.0157  92.0510 15.27585337128449
STARLINK-31719          
1 59495U 24071M   26201.62611013  .00000175  00000+0  15886-4 0  9991
2 59495  43.0042 309.2398 0001509 272.4891  87.5788 15.27575643128536
STARLINK-31728          
1 59496U 24071N   26201.60554898  .00005647  00000+0  21456-3 0  9995
2 59496  42.9995 309.0789 0000965 258.4720 101.6024 15.27580330128534
STARLINK-31720          
1 59497U 24071P   26201.64281926 -.00003918  00000+0 -13282-3 0  9998
2 59497  43.0018 309.3657 0001604 256.0125 104.0549 15.27603079128539
STARLINK-31731          
1 59498U 24071Q   26201.32087361  .00001827  00000+0  75920-4 0  9994
2 59498  43.0025 310.3868 0001191 284.7683  75.3037 15.27570385128492
STARLINK-31742          
1 59499U 24071R   26201.59141815 -.00001146  00000+0 -32142-4 0  9994
2 59499  43.0017 308.9737 0001156 268.6294  91.4426 15.27575115128534
STARLINK-31512          
1 59500U 24071S   26201.89770235  .00000321  00000+0  21178-4 0  9993
2 59500  43.0011 267.3072 0000967 273.1446  86.9295 15.27575267129037
STARLINK-31458          
1 59501U 24071T   26201.59655610  .00011485  00000+0  42696-3 0  9990
2 59501  43.0052 309.0146 0001287 292.7371  67.3345 15.27524487128530
STARLINK-31357          
1 59502U 24071U   26201.30688918  .00000519  00000+0  28377-4 0  9994
2 59502  43.0026 311.1361 0001487 254.7233 105.3454 15.27578893128480
STARLINK-31508          
1 59503U 24071V   26201.31074570  .00000490  00000+0  27332-4 0  9997
2 59503  43.0026 311.1704 0001350 266.1062  93.9635 15.27577781128486
STARLINK-31535          
1 59504U 24071W   26201.60601663 -.00000337  00000+0 -27330-5 0  9990
2 59504  43.0027 316.8704 0001545 285.3156  74.7525 15.27574163128445
STARLINK-31533          
1 59505U 24071X   26201.64537938  .00002535  00000+0  10163-3 0  9992
2 59505  43.0018 309.3819 0001175 270.8412  89.2305 15.27569039128536
STARLINK-31524          
1 59506U 24071Y   26201.62061590  .00001218  00000+0  53803-4 0  9993
2 59506  43.0019 302.0802 0001985 261.4091  98.6536 15.27578323128613
STARLINK-31635          
1 59511U 24073A   26201.31719305  .00000303  00000+0  20541-4 0  9998
2 59511  43.0023 288.6424 0001541 270.1225  89.9450 15.27579460126469
STARLINK-31650          
1 59512U 24073B   26201.94165018 -.00000072  00000+0  69132-5 0  9998
2 59512  43.0000 285.5834 0001292 271.7288  88.3416 15.27576163126557
STARLINK-31658          
1 59513U 24073C   26201.83889415 -.00000641  00000+0 -13778-4 0  9998
2 59513  43.0040 245.7934 0000936 336.3037  23.7772 15.27575116126998
STARLINK-31669          
1 59515U 24073E   26201.52364154 -.00000893  00000+0 -22938-4 0  9991
2 59515  43.0021 287.6085 0001369 276.1173  83.9522 15.27565986126494
STARLINK-31671          
1 59516U 24073F   26201.95192661  .00000281  00000+0  19738-4 0  9994
2 59516  43.0029 285.6553 0001240 271.9237  88.1473 15.27579498126555
STARLINK-31674          
1 59517U 24073G   26201.92751521 -.00000739  00000+0 -17335-4 0  9999
2 59517  42.9998 285.4766 0001030 282.3423  77.7313 15.27577974126557
STARLINK-31679          
1 59519U 24073J   26201.20072090 -.00002123  00000+0 -67640-4 0  9992
2 59519  42.9991 279.0886 0001252 231.8326 128.2413 15.27576946126563
STARLINK-31370          
1 59520U 24073K   26201.94935997 -.00000258  00000+0  16202-6 0  9995
2 59520  43.0018 285.6387 0001050 267.8846  92.1885 15.27577555126556
STARLINK-31404          
1 59521U 24073L   26201.30579475 -.00001607  00000+0 -48911-4 0  9991
2 59521  43.0000 289.4013 0001404 259.6486 100.4207 15.27563507126450
STARLINK-31453          
1 59522U 24073M   26201.46318458  .00005693  00000+0  21621-3 0  9996
2 59522  42.9992 270.4089 0002092 274.9477  85.1136 15.27583860126685
STARLINK-31476          
1 59523U 24073N   26201.94550346  .00000190  00000+0  16425-4 0  9998
2 59523  43.0031 285.6099 0001217 271.8752  88.1960 15.27594343126553
STARLINK-31538          
1 59525U 24073Q   26201.91980420  .00000504  00000+0  27858-4 0  9998
2 59525  43.0017 285.4166 0001303 273.0160  87.0543 15.27577060126557
STARLINK-31564          
1 59526U 24073R   26201.51977852  .00000001  00000+0  95829-5 0  9996
2 59526  43.0017 287.5767 0001548 268.2110  91.8564 15.27576496126491
STARLINK-31452          
1 59527U 24073S   26201.30192131 -.00000069  00000+0  70342-5 0  9991
2 59527  43.0038 289.3765 0001369 266.8156  93.2539 15.27575050126457
STARLINK-31513          
1 59529U 24073U   26201.95369117  .00000379  00000+0  23296-4 0  9992
2 59529  43.0034 282.1729 0001496 259.4806 100.5877 15.27579162126597
